AKEBONO (EXOS-D)        
1 19822U 89016A   20245.51321462  .00028607  49879-6  49294-3 0  9990
2 19822  75.0152 334.5664 1717853 180.7239 179.1287 12.11364335 48801
HST                     
1 20580U 90037B   20245.27455328  .00000464  00000-0  17244-4 0  9999
2 20580  28.4689 178.1650 0002733 183.0426 312.8051 15.09424638467437
POLAR                   
1 23802U 96013A   20244.39973394  .00000203  00000-0  00000+0 0  9997
2 23802  78.7079 248.8740 6253999 280.8109  18.7765  1.29846517117364
SWAS                    
1 25560U 98071A   20245.25211968  .00000106  00000-0  18488-4 0  9990
2 25560  69.8987 192.9313 0010428 238.9740 121.0393 14.93900524180345
ORSTED                  
1 25635U 99008B   20245.50206890  .00000060  00000-0  21380-4 0  9994
2 25635  96.4456 251.8714 0140399 107.6776 253.9807 14.48219761135629
CXO                     
1 25867U 99040B   20248.50214837  .00000543  00000-0  00000-0 0  9998
2 25867  61.0892 264.8839 7859216 227.2833   0.6028  0.37804232  9353
XMM-NEWTON              
1 25989U 99066A   20247.33218272  .00000061  00000-0  00000+0 0  9992
2 25989  71.0942 318.9923 7010261  92.5866   0.3620  0.50132391 26773
TERRA                   
1 25994U 99068A   20245.53096025  .00000078  00000-0  27329-4 0  9996
2 25994  98.2088 318.7413 0001299 109.2083 250.9261 14.57113068101392
CLUSTER II-FM7 (SAMBA)  
1 26410U 00041A   20246.25156311 -.00000196  00000-0  00000-0 0  9993
2 26410 132.0529 342.2213 4489826 185.2344 359.9119  0.44188004 10931
CLUSTER II-FM6 (SALSA)  
1 26411U 00041B   20246.34969146 -.00000332  00000-0  00000-0 0  9994
2 26411 132.1519 343.5799 5817744 190.9198 359.9498  0.44216872 10979
CLUSTER II-FM5 (RUMBA)  
1 26463U 00045A   20246.30878119 -.00000255  00000-0  00000-0 0  9994
2 26463 135.7872 343.2780 5416423 190.7160 359.9714  0.44216137 10863
CLUSTER II-FM8 (TANGO)  
1 26464U 00045B   20246.24061543 -.00000196  00000-0  00000-0 0  9997
2 26464 132.0432 342.2140 4486032 185.2314 359.8951  0.44220042 10948
ODIN                    
1 26702U 01007A   20245.49181168  .00000013  00000-0  49012-5 0  9991
2 26702  97.5535 261.1844 0011366  16.0684 344.0902 15.08145587 67673
TIMED                   
1 26998U 01055B   20245.42743867  .00000106  00000-0  15534-4 0  9998
2 26998  74.0728 141.9557 0001982 236.0026 124.0967 14.88210610 15764
RHESSI                  
1 27370U 02004A   20245.23097690  .00002054  00000-0  67173-4 0  9993
2 27370  38.0332  77.4656 0012789 240.0913 119.8588 15.33042292 25964
INTEGRAL                
1 27540U 02048A   20238.64006433  .00000570  00000-0  00000+0 0  9994
2 27540  56.1955 108.3580 8974811 293.4469   1.9604  0.37588774 18650
CORIOLIS                
1 27640U 03001A   20245.51304255  .00000004  00000-0  22908-4 0  9990
2 27640  98.7269 253.7928 0014226 173.7126 339.6888 14.19045506914228
SORCE                   
1 27651U 03004A   20245.49272571  .00000047  00000-0  18970-4 0  9998
2 27651  39.9949 265.9758 0022849 195.8227 164.1849 14.89140857955534
MOST                    
1 27843U 03031D   20245.47876962 -.00000001  00000-0  20044-4 0  9999
2 27843  98.7107 251.6740 0009110 230.4832 129.5540 14.20616455890395
SCISAT 1                
1 27858U 03036A   20245.51475734  .00000038  00000-0  10411-4 0  9993
2 27858  73.9338  34.8509 0008783 230.5050 129.5348 14.77298899918885
SWIFT                   
1 28485U 04047A   20245.29635921  .00000857  00000-0  28007-4 0  9993
2 28485  20.5557 213.9252 0010819 296.7017  63.2309 15.04663436864939
FORMOSAT-3 FM6          
1 29047U 06011A   20245.51278775 -.00000157  00000-0 -44867-4 0  9993
2 29047  71.9782 314.7515 0052237 290.1025  69.4494 14.28747452752185
FORMOSAT-3 FM1          
1 29048U 06011B   20245.39334144  .00000050  00000-0  36163-4 0  9993
2 29048  71.9649 225.8118 0045712 250.0649 109.5560 14.28714316754653
FORMOSAT-3 FM5          
1 29049U 06011C   20245.53013554  .00000044  00000-0  33530-4 0  9997
2 29049  72.0212  37.6122 0036665 274.9008  84.7943 14.28795301750464
FORMOSAT-3 FM3          
1 29050U 06011D   20245.25118105  .00000111  00000-0  33723-4 0  9995
2 29050  72.0162 176.5296 0050125 189.3271 170.6956 14.58941569767484
FORMOSAT-3 FM4          
1 29051U 06011E   20245.52866024  .00000061  00000-0  39527-4 0  9998
2 29051  72.0051 299.5281 0067286 154.8421 205.6020 14.28826483753055
FORMOSAT-3 FM2          
1 29052U 06011F   20245.52264075  .00000027  00000-0  26630-4 0  9990
2 29052  72.0365  13.9693 0041457 235.6226 124.0987 14.28931983750563
CLOUDSAT                
1 29107U 06016A   20245.52131696  .00000073  00000-0  23823-4 0  9990
2 29107  98.2361 192.5487 0002523 120.9362 239.2088 14.62452298763440
CALIPSO                 
1 29108U 06016B   20245.52083351  .00000093  00000-0  27802-4 0  9998
2 29108  98.2345 192.3163 0001316  75.8138 284.3209 14.62434998763432
HINODE (SOLAR-B)        
1 29479U 06041A   20245.50588155  .00000067  00000-0  21561-4 0  9994
2 29479  98.1595 256.6967 0018194 126.6954 233.5924 14.65082230745024
SJ-6C                   
1 29505U 06046A   20245.56446924 -.00000276  00000-0 -19980-4 0  9998
2 29505  97.8163 259.0213 0005379 127.3270 232.8436 14.94902532754985
SJ-6D                   
1 29506U 06046B   20245.58036851 -.00000090  00000-0 -30868-5 0  9998
2 29506  97.8359 259.1809 0001555 187.9182 172.2016 14.93525227754534
AGILE                   
1 31135U 07013A   20245.12790966  .00002613  00000-0  45080-4 0  9990
2 31135   2.4680 322.1258 0012064 279.5737  80.2953 15.32480345376289
AIM                     
1 31304U 07015A   20245.26299227  .00000848  00000-0  51041-4 0  9991
2 31304  97.8960 130.8421 0006632  96.3869 263.8117 15.13695576732153
FGRST (GLAST)           
1 33053U 08029A   20245.50306437  .00000512  00000-0  12477-4 0  9997
2 33053  25.5830 302.4737 0012362 166.1458 193.9418 15.11364174674836
WISE                    
1 36119U 09071A   20245.19868326  .00000876  00000-0  32499-4 0  9995
2 36119  97.3229 280.4328 0004223 105.7905 254.3802 15.30211480595401
SDO                     
1 36395U 10005A   20245.15882610 -.00000092  00000-0  00000-0 0  9998
2 36395  30.4465 120.0336 0001255 356.2900 179.6181  1.00276464 38850
CRYOSAT 2               
1 36508U 10013A   20245.54930599  .00000075  00000-0  17843-4 0  9993
2 36508  92.0273 126.1931 0004592 334.9895  25.1089 14.51904024551311
X-SAT                   
1 37389U 11015C   20245.45322359 -.00000006  00000-0  15222-4 0  9997
2 37389  98.4289 297.7402 0015226  70.4091 289.8746 14.24380850487109
GCOM-W1 (SHIZUKU)       
1 38337U 12025A   20245.43295781  .00000021  00000-0  14817-4 0  9994
2 38337  98.1999 184.3346 0002605  88.1683  24.6226 14.57075342441073
NUSTAR                  
1 38358U 12031A   20245.10974934  .00000948  00000-0  25179-4 0  9993
2 38358   6.0271  79.4441 0012398 261.6704  98.2019 14.88333075447302
NEOSSAT                 
1 39089U 13009D   20245.51065250  .00000032  00000-0  26403-4 0  9993
2 39089  98.4627  85.8236 0012443  64.0635 296.1831 14.34519720393457
IRIS                    
1 39197U 13033A   20245.52966944  .00000073  00000-0  17126-4 0  9998
2 39197  97.9611  66.7935 0027347 346.8626  13.1870 14.78748277387326
HISAKI (SPRINT-A)       
1 39253U 13049A   20245.45783303  .00000128  00000-0  84969-4 0  9996
2 39253  29.7188 168.0455 0137418 157.7063 202.9553 13.55226933344322
CASSIOPE                
1 39265U 13055A   20245.53746332  .00003790  00000-0  10463-3 0  9991
2 39265  80.9646 234.8609 0660466  80.4625 287.0515 14.29729559358675
STSAT-3                 
1 39422U 13066G   20245.53846861  .00000054  00000-0  11109-4 0  9995
2 39422  97.5073 274.4555 0021596 302.5329  57.3803 14.89853408368465
SWARM B                 
1 39451U 13067A   20245.48155105  .00000361  00000-0  14370-4 0  9990
2 39451  87.7476 257.0376 0001598  77.8739 282.2686 15.21775112361520
SWARM A                 
1 39452U 13067B   20245.51372952  .00001184  00000-0  24398-4 0  9991
2 39452  87.3575 103.0444 0003596  88.9578 271.2092 15.44682025380926
SWARM C                 
1 39453U 13067C   20245.51365855  .00001182  00000-0  24361-4 0  9994
2 39453  87.3429 103.8477 0003591  88.9928 271.1741 15.44682794380881
BRITE-CA1 (TORONTO)     
1 40020U 14033L   20245.48182578  .00000044  00000-0  15798-4 0  9995
2 40020  97.7318  69.3427 0087091 189.1631 170.7989 14.66656901331796
OCO 2                   
1 40059U 14035A   20245.54551457  .00000015  00000-0  13455-4 0  9998
2 40059  98.2056 185.1929 0001466  78.0649 282.0713 14.57112200328106
BRITE-PL2 (HEWELIUSZ)   
1 40119U 14049B   20245.21574885  .00000095  00000-0  17654-4 0  9997
2 40119  97.8951 336.6914 0016530 217.7250 142.2806 14.84528196326931
RESURS P2               
1 40360U 14087A   20245.53299255  .00000623  00000-0  21480-4 0  9996
2 40360  97.2445 332.8548 0007435 274.7649 211.0650 15.33632161317970
MMS 1                   
1 40482U 15011A   20242.30208333 -.00002152  00000-0  00000+0 0  9998
2 40482  29.8110 119.7307 8564372  23.3614  34.2825  0.28615199 11426
MMS 2                   
1 40483U 15011B   20242.30208333 -.00002151  00000-0  00000+0 0  9998
2 40483  29.8101 119.7319 8561845  23.3631  34.2751  0.28615340 11405
MMS 3                   
1 40484U 15011C   20242.30208333 -.00002153  00000-0  00000+0 0  9991
2 40484  29.7903 119.7172 8564099  23.3959  34.2482  0.28612628 11406
MMS 4                   
1 40485U 15011D   20242.30208333 -.00002152  00000-0  00000+0 0  9991
2 40485  29.8067 119.7456 8563306  23.3585  34.2475  0.28624923 11402
ASTROSAT                
1 40930U 15052A   20245.16521465  .00000723  00000-0  12384-4 0  9996
2 40930   5.9958 162.6473 0009124 259.9381  99.9717 14.76327228266420
DAMPE                   
1 41173U 15078A   20245.54973525  .00000059  00000-0  53523-5 0  9997
2 41173  97.3287 237.8114 0013542 350.8038 157.8263 15.23893975261982
PISAT                   
1 41784U 16059B   20245.38796702  .00000072  00000-0  22755-4 0  9994
2 41784  98.0121 299.7935 0033266  75.0408 285.4473 14.63534276210013
HXMT (HUIYAN)           
1 42758U 17034A   20245.52907819  .00000251  00000-0  29327-4 0  9990
2 42758  43.0204 338.6382 0009337 150.6380 327.0945 15.08878652177363
FLYING LAPTOP           
1 42831U 17042G   20245.55943848  .00000191  00000-0  24575-4 0  9999
2 42831  97.5099 123.8728 0015080  36.5417 323.6827 14.91151712170630
PICSAT                  
1 43132U 18004X   20245.25714553  .00001651  00000-0  69839-4 0  9993
2 43132  97.4424 316.1210 0010595 139.8430 220.3592 15.24581514146603
ZHANGZHENG-1 (CSES)     
1 43194U 18015C   20245.50061438  .00000879  00000-0  42666-4 0  9998
2 43194  97.4445   9.6194 0014765 200.1974 230.3297 15.21047812143220
ICON                    
1 44628U 19068A   20245.42527927  .00000465  00000-0  25380-4 0  9996
2 44628  26.9892 257.8602 0019395  75.6942 284.5768 14.91725020 48780
